CCSDS_OMM_VERS = 2.0
CREATION_DATE  = 
ORIGINATOR     = 

OBJECT_NAME    = IDEFIX & ARIANE 42P R/B
OBJECT_ID      = 2002-021B
CENTER_NAME    = EARTH
REF_FRAME      = TEME
TIME_SYSTEM    = UTC
MEAN_ELEMENT_THEORY = SGP/SGP4

EPOCH          = 2025-12-18T12:38:30.141600
MEAN_MOTION    = 14.30954471
ECCENTRICITY   = .00129119
INCLINATION    = 98.5793
RA_OF_ASC_NODE = 287.1426
ARG_OF_PERICENTER = 68.1201
MEAN_ANOMALY   = 292.1353

EPHEMERIS_TYPE = 0
CLASSIFICATION_TYPE = U
NORAD_CAT_ID   = 27422
ELEMENT_SET_NO = 999
REV_AT_EPOCH   = 23241
BSTAR          = .1011881E-3
MEAN_MOTION_DOT = .223E-5
MEAN_MOTION_DDOT = 0

CCSDS_OMM_VERS = 2.0
CREATION_DATE  = 
ORIGINATOR     = 

OBJECT_NAME    = AQUA
OBJECT_ID      = 2002-022A
CENTER_NAME    = EARTH
REF_FRAME      = TEME
TIME_SYSTEM    = UTC
MEAN_ELEMENT_THEORY = SGP/SGP4

EPOCH          = 2025-12-18T00:44:29.182848
MEAN_MOTION    = 14.61821302
ECCENTRICITY   = .00012878
INCLINATION    = 98.4043
RA_OF_ASC_NODE = 312.9961
ARG_OF_PERICENTER = 113.4651
MEAN_ANOMALY   = 320.6588

EPHEMERIS_TYPE = 0
CLASSIFICATION_TYPE = U
NORAD_CAT_ID   = 27424
ELEMENT_SET_NO = 999
REV_AT_EPOCH   = 25680
BSTAR          = .17905095E-3
MEAN_MOTION_DOT = .845E-5
MEAN_MOTION_DDOT = 0

CCSDS_OMM_VERS = 2.0
CREATION_DATE  = 
ORIGINATOR     = 

OBJECT_NAME    = CZ-4B R/B
OBJECT_ID      = 2002-024C
CENTER_NAME    = EARTH
REF_FRAME      = TEME
TIME_SYSTEM    = UTC
MEAN_ELEMENT_THEORY = SGP/SGP4

EPOCH          = 2025-12-18T14:22:06.128256
MEAN_MOTION    = 14.14529092
ECCENTRICITY   = .00491987
INCLINATION    = 98.8992
RA_OF_ASC_NODE = 41.3498
ARG_OF_PERICENTER = 252.9291
MEAN_ANOMALY   = 226.3227

EPHEMERIS_TYPE = 0
CLASSIFICATION_TYPE = U
NORAD_CAT_ID   = 27432
ELEMENT_SET_NO = 999
REV_AT_EPOCH   = 21777
BSTAR          = .47036409E-4
MEAN_MOTION_DOT = .46E-6
MEAN_MOTION_DDOT = 0

CCSDS_OMM_VERS = 2.0
CREATION_DATE  = 
ORIGINATOR     = 

OBJECT_NAME    = MIDORI II (ADEOS-II)
OBJECT_ID      = 2002-056A
CENTER_NAME    = EARTH
REF_FRAME      = TEME
TIME_SYSTEM    = UTC
MEAN_ELEMENT_THEORY = SGP/SGP4

EPOCH          = 2025-12-18T10:56:48.062976
MEAN_MOTION    = 14.29209543
ECCENTRICITY   = .00004877
INCLINATION    = 98.7644
RA_OF_ASC_NODE = 305.4426
ARG_OF_PERICENTER = 151.7575
MEAN_ANOMALY   = 208.3633

EPHEMERIS_TYPE = 0
CLASSIFICATION_TYPE = U
NORAD_CAT_ID   = 27597
ELEMENT_SET_NO = 999
REV_AT_EPOCH   = 19869
BSTAR          = .9934127E-4
MEAN_MOTION_DOT = .207E-5
MEAN_MOTION_DDOT = 0

CCSDS_OMM_VERS = 2.0
CREATION_DATE  = 
ORIGINATOR     = 

OBJECT_NAME    = H-2A R/B
OBJECT_ID      = 2002-056E
CENTER_NAME    = EARTH
REF_FRAME      = TEME
TIME_SYSTEM    = UTC
MEAN_ELEMENT_THEORY = SGP/SGP4

EPOCH          = 2025-12-18T11:38:06.781344
MEAN_MOTION    = 14.33680968
ECCENTRICITY   = .00712209
INCLINATION    = 98.3073
RA_OF_ASC_NODE = 311.0129
ARG_OF_PERICENTER = 44.2776
MEAN_ANOMALY   = 76.1247

EPHEMERIS_TYPE = 0
CLASSIFICATION_TYPE = U
NORAD_CAT_ID   = 27601
ELEMENT_SET_NO = 999
REV_AT_EPOCH   = 20247
BSTAR          = .11628622E-3
MEAN_MOTION_DOT = .291E-5
MEAN_MOTION_DDOT = 0

CCSDS_OMM_VERS = 2.0
CREATION_DATE  = 
ORIGINATOR     = 

OBJECT_NAME    = CZ-4B R/B
OBJECT_ID      = 2003-049C
CENTER_NAME    = EARTH
REF_FRAME      = TEME
TIME_SYSTEM    = UTC
MEAN_ELEMENT_THEORY = SGP/SGP4

EPOCH          = 2025-12-18T13:53:34.570176
MEAN_MOTION    = 14.54914725
ECCENTRICITY   = .00492426
INCLINATION    = 98.6790
RA_OF_ASC_NODE = 339.3634
ARG_OF_PERICENTER = 118.5684
MEAN_ANOMALY   = 242.0480

EPHEMERIS_TYPE = 0
CLASSIFICATION_TYPE = U
NORAD_CAT_ID   = 28059
ELEMENT_SET_NO = 999
REV_AT_EPOCH   = 17480
BSTAR          = .81226166E-4
MEAN_MOTION_DOT = .304E-5
MEAN_MOTION_DDOT = 0

CCSDS_OMM_VERS = 2.0
CREATION_DATE  = 
ORIGINATOR     = 

OBJECT_NAME    = CZ-2C R/B
OBJECT_ID      = 2004-012C
CENTER_NAME    = EARTH
REF_FRAME      = TEME
TIME_SYSTEM    = UTC
MEAN_ELEMENT_THEORY = SGP/SGP4

EPOCH          = 2025-12-18T14:13:20.185536
MEAN_MOTION    = 15.55946569
ECCENTRICITY   = .00164743
INCLINATION    = 97.7419
RA_OF_ASC_NODE = 45.6993
ARG_OF_PERICENTER = 247.4604
MEAN_ANOMALY   = 112.4906

EPHEMERIS_TYPE = 0
CLASSIFICATION_TYPE = U
NORAD_CAT_ID   = 28222
ELEMENT_SET_NO = 999
REV_AT_EPOCH   = 19163
BSTAR          = .45406541E-3
MEAN_MOTION_DOT = .31671E-3
MEAN_MOTION_DDOT = 0

CCSDS_OMM_VERS = 2.0
CREATION_DATE  = 
ORIGINATOR     = 

OBJECT_NAME    = SL-16 R/B
OBJECT_ID      = 2004-021B
CENTER_NAME    = EARTH
REF_FRAME      = TEME
TIME_SYSTEM    = UTC
MEAN_ELEMENT_THEORY = SGP/SGP4

EPOCH          = 2025-12-18T13:28:29.559936
MEAN_MOTION    = 14.14578914
ECCENTRICITY   = .00049819
INCLINATION    = 71.0009
RA_OF_ASC_NODE = 42.7484
ARG_OF_PERICENTER = 190.4524
MEAN_ANOMALY   = 169.6495

EPHEMERIS_TYPE = 0
CLASSIFICATION_TYPE = U
NORAD_CAT_ID   = 28353
ELEMENT_SET_NO = 999
REV_AT_EPOCH   = 11136
BSTAR          = -.4274272E-4
MEAN_MOTION_DOT = -.13E-5
MEAN_MOTION_DDOT = 0

CCSDS_OMM_VERS = 2.0
CREATION_DATE  = 
ORIGINATOR     = 

OBJECT_NAME    = CZ-4B R/B
OBJECT_ID      = 2004-035C
CENTER_NAME    = EARTH
REF_FRAME      = TEME
TIME_SYSTEM    = UTC
MEAN_ELEMENT_THEORY = SGP/SGP4

EPOCH          = 2025-12-18T14:07:25.542048
MEAN_MOTION    = 15.27464177
ECCENTRICITY   = .00315295
INCLINATION    = 97.3600
RA_OF_ASC_NODE = 22.8549
ARG_OF_PERICENTER = 255.5820
MEAN_ANOMALY   = 104.1920

EPHEMERIS_TYPE = 0
CLASSIFICATION_TYPE = U
NORAD_CAT_ID   = 28415
ELEMENT_SET_NO = 999
REV_AT_EPOCH   = 16752
BSTAR          = .24589978E-3
MEAN_MOTION_DOT = .6629E-4
MEAN_MOTION_DDOT = 0

CCSDS_OMM_VERS = 2.0
CREATION_DATE  = 
ORIGINATOR     = 

OBJECT_NAME    = CZ-2C R/B
OBJECT_ID      = 2004-046B
CENTER_NAME    = EARTH
REF_FRAME      = TEME
TIME_SYSTEM    = UTC
MEAN_ELEMENT_THEORY = SGP/SGP4

EPOCH          = 2025-12-18T11:57:41.412672
MEAN_MOTION    = 14.26943864
ECCENTRICITY   = .01402446
INCLINATION    = 98.1993
RA_OF_ASC_NODE = 267.5183
ARG_OF_PERICENTER = 35.3830
MEAN_ANOMALY   = 325.6560

EPHEMERIS_TYPE = 0
CLASSIFICATION_TYPE = U
NORAD_CAT_ID   = 28480
ELEMENT_SET_NO = 999
REV_AT_EPOCH   = 9692
BSTAR          = .7766892E-4
MEAN_MOTION_DOT = .169E-5
MEAN_MOTION_DDOT = 0

CCSDS_OMM_VERS = 2.0
CREATION_DATE  = 
ORIGINATOR     = 

OBJECT_NAME    = ARIANE 5 R/B
OBJECT_ID      = 2004-049H
CENTER_NAME    = EARTH
REF_FRAME      = TEME
TIME_SYSTEM    = UTC
MEAN_ELEMENT_THEORY = SGP/SGP4

EPOCH          = 2025-12-18T10:44:02.476032
MEAN_MOTION    = 14.85025940
ECCENTRICITY   = .00833168
INCLINATION    = 98.2523
RA_OF_ASC_NODE = 152.9333
ARG_OF_PERICENTER = 254.1761
MEAN_ANOMALY   = 105.0255

EPHEMERIS_TYPE = 0
CLASSIFICATION_TYPE = U
NORAD_CAT_ID   = 28499
ELEMENT_SET_NO = 999
REV_AT_EPOCH   = 13373
BSTAR          = .11338364E-3
MEAN_MOTION_DOT = .963E-5
MEAN_MOTION_DDOT = 0

CCSDS_OMM_VERS = 2.0
CREATION_DATE  = 
ORIGINATOR     = 

OBJECT_NAME    = CZ-2D R/B
OBJECT_ID      = 2005-024B
CENTER_NAME    = EARTH
REF_FRAME      = TEME
TIME_SYSTEM    = UTC
MEAN_ELEMENT_THEORY = SGP/SGP4

EPOCH          = 2025-12-18T14:01:02.438400
MEAN_MOTION    = 15.53517578
ECCENTRICITY   = .00045028
INCLINATION    = 97.3625
RA_OF_ASC_NODE = 0.1856
ARG_OF_PERICENTER = 344.5552
MEAN_ANOMALY   = 15.5563

EPHEMERIS_TYPE = 0
CLASSIFICATION_TYPE = U
NORAD_CAT_ID   = 28738
ELEMENT_SET_NO = 999
REV_AT_EPOCH   = 12716
BSTAR          = .38303904E-3
MEAN_MOTION_DOT = .24281E-3
MEAN_MOTION_DDOT = 0

