IDEFIX & ARIANE 42P R/B 
1 27422U 02021B   25352.52673775  .00000223  00000+0  10119-3 0  9992
2 27422  98.5793 287.1426 0012911  68.1201 292.1353 14.30954471232417
AQUA                    
1 27424U 02022A   25352.03089332  .00000845  00000+0  17905-3 0  9991
2 27424  98.4043 312.9961 0001287 113.4651 320.6588 14.61821302256800
CZ-4B R/B               
1 27432U 02024C   25352.59868204  .00000046  00000+0  47036-4 0  9998
2 27432  98.8992  41.3498 0049198 252.9291 226.3227 14.14529092217770
MIDORI II (ADEOS-II)    
1 27597U 02056A   25352.45611184  .00000207  00000+0  99341-4 0  9998
2 27597  98.7644 305.4426 0000487 151.7575 208.3633 14.29209543198691
H-2A R/B                
1 27601U 02056E   25352.48480071  .00000291  00000+0  11629-3 0  9991
2 27601  98.3073 311.0129 0071220  44.2776  76.1247 14.33680968202477
CZ-4B R/B               
1 28059U 03049C   25352.57887234  .00000304  00000+0  81226-4 0  9990
2 28059  98.6790 339.3634 0049242 118.5684 242.0480 14.54914725174802
CZ-2C R/B               
1 28222U 04012C   25352.59259474  .00031671  00000+0  45407-3 0  9995
2 28222  97.7419  45.6993 0016474 247.4604 112.4906 15.55946569191638
SL-16 R/B               
1 28353U 04021B   25352.56145324 -.00000130  00000+0 -42743-4 0  9994
2 28353  71.0009  42.7484 0004981 190.4524 169.6495 14.14578914111362
CZ-4B R/B               
1 28415U 04035C   25352.58849007  .00006629  00000+0  24590-3 0  9995
2 28415  97.3600  22.8549 0031529 255.5820 104.1920 15.27464177167526
CZ-2C R/B               
1 28480U 04046B   25352.49839598  .00000169  00000+0  77669-4 0  9992
2 28480  98.1993 267.5183 0140244  35.3830 325.6560 14.26943864 96922
ARIANE 5 R/B            
1 28499U 04049H   25352.44725088  .00000963  00000+0  11338-3 0  9990
2 28499  98.2523 152.9333 0083316 254.1761 105.0255 14.85025940133739
CZ-2D R/B               
1 28738U 05024B   25352.58405600  .00024281  00000+0  38304-3 0  9991
2 28738  97.3625   0.1856 0004502 344.5552  15.5563 15.53517578127160
